BEIDOU-2 IGSO-1 (C06)   
1 36828U 10036A   23278.78323865 -.00000128  00000+0  00000+0 0  9991
2 36828  54.2340 171.8880 0036612 187.2802  41.2695  1.00244674 48328
BEIDOU-2 G4 (C04)       
1 37210U 10057A   23278.72202203 -.00000120  00000+0  00000+0 0  9998
2 37210   1.2463  62.2523 0007213 162.6439 209.1628  1.00272927 47419
BEIDOU-2 IGSO-2 (C07)   
1 37256U 10068A   23278.93889633 -.00000179  00000+0  00000+0 0  9995
2 37256  49.3526 283.9199 0032163 213.3325 323.5471  1.00273884 46917
BEIDOU-2 IGSO-3 (C08)   
1 37384U 11013A   23278.71900253 -.00000176  00000+0  00000+0 0  9993
2 37384  60.9871  49.5906 0028186 176.4102 155.1631  1.00273914 45779
BEIDOU-2 IGSO-4 (C09)   
1 37763U 11038A   23278.78150253 -.00000127  00000+0  00000+0 0  9991
2 37763  54.5075 174.4335 0111959 227.7308 348.6012  1.00267791 44764
BEIDOU-2 IGSO-5 (C10)   
1 37948U 11073A   23278.48873877 -.00000130  00000+0  00000+0 0  9990
2 37948  49.4791 283.5948 0095002 220.7675 140.8594  1.00265601 43257
BEIDOU-2 G5 (C05)       
1 38091U 12008A   23278.86913024  .00000049  00000+0  00000+0 0  9998
2 38091   1.7845  68.9059 0005547 179.7976 137.1457  1.00271291 42481
BEIDOU-2 M3 (C11)       
1 38250U 12018A   23277.80489480 -.00000105  00000+0  00000+0 0  9997
2 38250  56.4941 337.8641 0024613 257.0832 102.6988  1.86231200 77577
BEIDOU-2 M4 (C12)       
1 38251U 12018B   23278.81011307 -.00000102  00000+0  00000+0 0  9996
2 38251  56.4040 337.1214 0015506 257.5498 102.3335  1.86231938 77943
BEIDOU-2 M6 (C14)       
1 38775U 12050B   23276.90904099 -.00000004  00000+0  00000+0 0  9991
2 38775  55.7142  95.7754 0010888 340.2373  19.7556  1.86231239 75279
BEIDOU-2 G6 (C02)       
1 38953U 12059A   23278.88979524 -.00000184  00000+0  00000+0 0  9991
2 38953   1.9056  81.8048 0006759 302.3495  34.5467  1.00271742 40022
BEIDOU-3S IGSO-1S (C31) 
1 40549U 15019A   23278.53974772 -.00000135  00000+0  00000+0 0  9992
2 40549  51.0430 307.2026 0040941 197.1617 155.1452  1.00250353 31182
BEIDOU-3S M2S (C57)     
1 40748U 15037A   23278.47560906 -.00000102  00000+0  00000+0 0  9990
2 40748  55.6436 335.7126 0012381 245.5909 114.3363  1.86233176 55761
BEIDOU-3S M1S (C58)     
1 40749U 15037B   23277.67185551 -.00000103  00000+0  00000+0 0  9992
2 40749  55.6471 335.7261 0004456 295.3923  64.6184  1.86232937 55755
BEIDOU-3S IGSO-2S (C56) 
1 40938U 15053A   23277.95800727 -.00000120  00000+0  00000+0 0  9999
2 40938  50.7636 270.3866 0047848 194.5439 349.9293  1.00276285 29462
BEIDOU-2 IGSO-6 (C13)   
1 41434U 16021A   23278.81845851 -.00000156  00000+0  00000+0 0  9999
2 41434  58.8021  47.9454 0048235 218.8485 138.9014  1.00276976 27590
BEIDOU-2 G7 (C03)       
1 41586U 16037A   23278.94225295 -.00000362  00000+0  00000+0 0  9991
2 41586   1.9457  68.8361 0006720 338.1506  57.1403  1.00270024 26919
BEIDOU-3 M1 (C19)       
1 43001U 17069A   23277.21229996 -.00000003  00000+0  00000+0 0  9994
2 43001  55.8660  95.8275 0007182 298.9210  61.0419  1.86231598 40227
BEIDOU-3 M2 (C20)       
1 43002U 17069B   23276.07518326 -.00000004  00000+0  00000+0 0  9997
2 43002  55.8643  95.9023 0005496 333.9207  26.0884  1.86231183 40196
BEIDOU-3 M7 (C27)       
1 43107U 18003A   23277.43676819 -.00000105  00000+0  00000+0 0  9997
2 43107  55.1006 336.4512 0002846  74.1800 285.9076  1.86232475 38970
BEIDOU-3 M8 (C28)       
1 43108U 18003B   23277.37511888 -.00000105  00000+0  00000+0 0  9995
2 43108  55.0937 336.4402 0004595 248.7637 111.2435  1.86230938 38984
BEIDOU-3 M4 (C22)       
1 43207U 18018A   23276.20641779 -.00000004  00000+0  00000+0 0  9993
2 43207  55.8241  95.9591 0004343  20.2189 339.8349  1.86231496 38344
BEIDOU-3 M3 (C21)       
1 43208U 18018B   23277.88393316  .00000001  00000+0  00000+0 0  9996
2 43208  55.8247  95.9075 0005100 317.7734  42.2226  1.86231514 38373
BEIDOU-3 M9 (C29)       
1 43245U 18029A   23277.03277858 -.00000102  00000+0  00000+0 0  9991
2 43245  54.9938 334.1959 0001861 235.6030 124.4365  1.86232692 37517
BEIDOU-3 M10 (C30)      
1 43246U 18029B   23278.03665515 -.00000101  00000+0  00000+0 0  9993
2 43246  54.9906 334.1903 0002956 343.2820  16.7645  1.86232944 37526
BEIDOU-2 IGSO-7 (C16)   
1 43539U 18057A   23278.71346434 -.00000146  00000+0  00000+0 0  9999
2 43539  55.1179 171.5843 0063920 230.4314 342.8384  1.00274222 19260
BEIDOU-3 M5 (C23)       
1 43581U 18062A   23278.25687116 -.00000003  00000+0  00000+0 0  9998
2 43581  54.1713 215.8584 0004324 289.4564  70.4909  1.86231978 35279
BEIDOU-3 M6 (C24)       
1 43582U 18062B   23278.12314065 -.00000001  00000+0  00000+0 0  9993
2 43582  54.1710 215.8526 0005519   7.4020 352.6001  1.86229866 35276
BEIDOU-3 M12 (C26)      
1 43602U 18067A   23278.59610673 -.00000008  00000+0  00000+0 0  9993
2 43602  54.2584 214.4948 0007369  16.7656 343.2545  1.86231507 34762
BEIDOU-3 M11 (C25)      
1 43603U 18067B   23278.19298751 -.00000003  00000+0  00000+0 0  9994
2 43603  54.2556 214.4742 0004342   4.6304 355.3694  1.86231473 34781
BEIDOU-3 M13 (C32)      
1 43622U 18072A   23278.15194436  .00000002  00000+0  00000+0 0  9990
2 43622  55.7950  95.4339 0003979 292.1781  67.8146  1.86231555 34297
BEIDOU-3 M14 (C33)      
1 43623U 18072B   23278.55435189  .00000006  00000+0  00000+0 0  9992
2 43623  55.7974  95.4132 0002335 350.2060   9.8250  1.86231562 34296
BEIDOU-3 M16 (C35)      
1 43647U 18078A   23278.18060946 -.00000101  00000+0  00000+0 0  9995
2 43647  54.8895 334.2768 0005997   3.1612 356.8988  1.86227324 33795
BEIDOU-3 M15 (C34)      
1 43648U 18078B   23278.31039759 -.00000101  00000+0  00000+0 0  9999
2 43648  54.8852 334.2759 0002762   8.2121 351.8485  1.86232322 33822
BEIDOU-3 G1 (C59)       
1 43683U 18085A   23278.89076898 -.00000287  00000+0  00000+0 0  9999
2 43683   1.5831 122.2372 0002028   7.9099 344.8431  1.00267866 18179
BEIDOU-3 M17 (C36)      
1 43706U 18093A   23276.84742785  .00000010  00000+0  00000+0 0  9995
2 43706  54.2541 215.8259 0009494 283.7160  76.1698  1.86232001 33150
BEIDOU-3 M18 (C37)      
1 43707U 18093B   23278.32459413 -.00000004  00000+0  00000+0 0  9998
2 43707  54.2546 215.7674 0008003 311.8892  48.0367  1.86229896 33177
BEIDOU-3 IGSO-1 (C38)   
1 44204U 19023A   23278.94959289 -.00000209  00000+0  00000+0 0  9996
2 44204  57.2690  47.9103 0023988 196.0999 232.1049  1.00273276 16468
BEIDOU-2 G8 (C01)       
1 44231U 19027A   23278.84216124 -.00000255  00000+0  00000+0 0  9994
2 44231   2.0356  80.9955 0006970 135.1819 245.7883  1.00274387 16206
BEIDOU-3 IGSO-2 (C39)   
1 44337U 19035A   23278.71537406 -.00000146  00000+0  00000+0 0  9994
2 44337  55.1518 167.5161 0032891 195.7477  27.6940  1.00265036 15780
BEIDOU-3 M24 (C46)      
1 44542U 19061A   23278.39605440 -.00000004  00000+0  00000+0 0  9992
2 44542  54.4809 216.0095 0008516 347.3428  12.6296  1.86231518 27432
BEIDOU-3 M23 (C45)      
1 44543U 19061B   23278.24979421 -.00000002  00000+0  00000+0 0  9998
2 44543  54.4798 215.9834 0005717 333.5993 200.2393  1.86231895 27434
BEIDOU-3 IGSO-3 (C40)   
1 44709U 19073A   23277.44012052 -.00000166  00000+0  00000+0 0  9995
2 44709  56.4857 291.4341 0035011 190.8259 169.1133  1.00272968 14564
BEIDOU-3 M22 (C44)      
1 44793U 19078A   23278.77840347 -.00000100  00000+0  00000+0 0  9994
2 44793  54.7375 334.2194 0004770  10.6271 349.4390  1.86232276 26301
BEIDOU-3 M21 (C43)      
1 44794U 19078B   23277.83499715 -.00000102  00000+0  00000+0 0  9992
2 44794  54.7118 334.2336 0002852 355.7733   4.2803  1.86232677 26287
BEIDOU-3 M19 (C41)      
1 44864U 19090A   23278.62625188  .00000006  00000+0  00000+0 0  9999
2 44864  55.7300  95.6026 0015163 274.0852  90.1865  1.86231873 25870
BEIDOU-3 M20 (C42)      
1 44865U 19090B   23278.14799010  .00000002  00000+0  00000+0 0  9999
2 44865  55.7313  95.6513 0012891 289.4247 203.9752  1.86231813 25850
BEIDOU-3 G2 (C60)       
1 45344U 20017A   23278.93549844 -.00000150  00000+0  00000+0 0  9993
2 45344   2.0690  17.8427 0003287 184.5544 228.7724  1.00272708 13383
BEIDOU-3 G3 (C61)       
1 45807U 20040A   23278.91287267 -.00000363  00000+0  00000+0 0  9995
2 45807   0.5943 350.6637 0007771 316.5718 146.3051  1.00273298 12195
BEIDOU-3 G4             
1 56564U 23066A   23278.80813321 -.00000122  00000+0  00000+0 0  9995
2 56564   2.7669 288.6833 0006103 223.3881 313.1186  1.00272169  1511
